STARLINK-31343          
1 59093U 24041V   26068.39654208  .00008982  00000+0  33569-3 0  9991
2 59093  43.0026 312.6134 0001575 269.7459  90.3212 15.27562442114273
LIZZIESAT-2 (LS-2)      
1 62383U 24247G   26068.49140277  .00009388  00000+0  34517-3 0  9997
2 62383  44.9909 117.0823 0004092 327.5136  32.5495 15.28222796 67716
